GSAT0216 (GALILEO 20)   
1 43056U 17079B   26189.42361508  .00000085  00000+0  00000+0 0  9998
2 43056  55.0694 220.9220 0004840 276.8691  83.1496  1.70474488 53362
GSAT0217 (GALILEO 21)   
1 43057U 17079C   26188.47125062  .00000081  00000+0  00000+0 0  9992
2 43057  55.0679 220.9459 0003909 293.3909  66.6394  1.70474257 53335
GSAT0218 (GALILEO 22)   
1 43058U 17079D   26186.34500280  .00000075  00000+0  00000+0 0  9999
2 43058  55.0681 221.0021 0006103 274.7664  85.2358  1.70474403 53325
BEIDOU-3 M7             
1 43107U 18003A   26189.29199238 -.00000066  00000+0  00000+0 0  9997
2 43107  54.3077 301.5793 0004480  97.6666 262.4055  1.86228440 57749
BEIDOU-3 M8             
1 43108U 18003B   26188.16254440 -.00000063  00000+0  00000+0 0  9997
2 43108  54.3015 301.6004 0002979 257.8270 102.1630  1.86231031 57738
BEIDOU-3 M4             
1 43207U 18018A   26188.06871672 -.00000042  00000+0  00000+0 0  9991
2 43207  56.6676  62.4940 0007428  26.7445 333.3571  1.86231345 57110
BEIDOU-3 M3             
1 43208U 18018B   26187.59825105 -.00000041  00000+0  00000+0 0  9998
2 43208  56.6666  62.5134 0007880 344.5989  15.4415  1.86231254 57105
BEIDOU-3 M9             
1 43245U 18029A   26189.42706904 -.00000063  00000+0  00000+0 0  9994
2 43245  54.1736 299.2068 0001095 182.3611 177.6623  1.86228291 56292
BEIDOU-3 M10            
1 43246U 18029B   26189.36131532 -.00000063  00000+0  00000+0 0  9997
2 43246  54.1716 299.2350 0003338  36.6933 323.3534  1.86229518 56277
IRNSS-1I                
1 43286U 18035A   26187.83739038  .00000079  00000+0  00000+0 0  9999
2 43286  28.7973  73.8917 0018087 180.4002  27.0525  1.00279237 30279
COSMOS 2527 [GLONASS-M] 
1 43508U 18053A   26189.20148663 -.00000022  00000+0  00000+0 0  9996
2 43508  65.5888  73.2071 0006688 231.9925 128.0075  2.13102228 62722
BEIDOU-2 IGSO-7         
1 43539U 18057A   26182.89122331 -.00000033  00000+0  00000+0 0  9998
2 43539  55.1981 162.9292 0104946 237.8611 308.6338  1.00246939 29273
GSAT0221 (GALILEO 25)   
1 43564U 18060A   26187.42223834 -.00000071  00000+0  00000+0 0  9996
2 43564  57.1630 341.2618 0002573 291.0401  68.9323  1.70476116 49495
GSAT0222 (GALILEO 26)   
1 43565U 18060B   26189.40167590 -.00000073  00000+0  00000+0 0  9995
2 43565  57.1654 341.2120 0002589 236.8801 123.0952  1.70475809 49576
GSAT0219 (GALILEO 23)   
1 43566U 18060C   26187.86278952 -.00000071  00000+0  00000+0 0  9997
2 43566  57.1653 341.2551 0001764 304.6293  55.3544  1.70476064 49520
GSAT0220 (GALILEO 24)   
1 43567U 18060D   26188.08378388 -.00000071  00000+0  00000+0 0  9997
2 43567  57.1651 341.2500 0002042 295.4390  64.5404  1.70475891 49511
BEIDOU-3 M5             
1 43581U 18062A   26189.04832831  .00000121  00000+0  00000+0 0  9995
2 43581  54.0866 181.5951 0005726 292.2856  67.6621  1.86228639 54020
BEIDOU-3 M6             
1 43582U 18062B   26188.37493262  .00000119  00000+0  00000+0 0  9999
2 43582  54.0860 181.6071 0005088   9.1977 350.8186  1.86227975 54013
BEIDOU-3 M12            
1 43602U 18067A   26188.31336325  .00000118  00000+0  00000+0 0  9996
2 43602  54.1816 180.3578 0007907  30.2614 329.7892  1.86227798 53494
BEIDOU-3 M11            
1 43603U 18067B   26188.98544538  .00000120  00000+0  00000+0 0  9990
2 43603  54.1790 180.2986 0004630  13.6322 346.3866  1.86227293 53530
BEIDOU-3 M13            
1 43622U 18072A   26188.94016904 -.00000045  00000+0  00000+0 0  9991
2 43622  56.6422  61.9754 0006474 332.0294  27.9978  1.86231551 53046
BEIDOU-3 M14            
1 43623U 18072B   26187.73170765 -.00000042  00000+0  00000+0 0  9991
2 43623  56.6432  62.0091 0005559   9.9346 350.1406  1.86231254 53019
BEIDOU-3 M16            
1 43647U 18078A   26188.42370037 -.00000062  00000+0  00000+0 0  9996
2 43647  54.0702 299.2766 0006751  40.2464 319.8292  1.86232245 52536
BEIDOU-3 M15            
1 43648U 18078B   26187.47907947 -.00000060  00000+0  00000+0 0  9995
2 43648  54.0667 299.3099 0003770  58.5392 301.5247  1.86232415 52534
BEIDOU-3 G1             
1 43683U 18085A   26189.61403469 -.00000096  00000+0  00000+0 0  9999
2 43683   2.9193  96.8106 0008348 354.8214 215.9204  1.00273319 28278
COSMOS 2529 [GLONASS-M] 
1 43687U 18086A   26189.29778472  .00000125  00000+0  00000+0 0  9999
2 43687  64.2967 191.8814 0012123 256.2605 103.6369  2.13102080 59730
BEIDOU-3 M17            
1 43706U 18093A   26189.35426284  .00000121  00000+0  00000+0 0  9993
2 43706  54.1700 181.5784 0010162 293.2680 135.4214  1.86228274 51931
BEIDOU-3 M18            
1 43707U 18093B   26189.11529021  .00000121  00000+0  00000+0 0  9991
2 43707  54.1709 181.5785 0008056 321.6714  38.2799  1.86226666 51925
NAVSTAR 77 (USA 289)    
1 43873U 18109A   26189.19546507 -.00000023  00000+0  00000+0 0  9991
2 43873  55.6938  91.3584 0038539 197.3803 335.3129  2.00562547 55492
BEIDOU-3 IGSO-1         
1 44204U 19023A   26189.48210734 -.00000209  00000+0  00000+0 0  9994
2 44204  58.7247  37.4318 0025583 224.0549 317.4664  1.00285216  7423
BEIDOU-2 G8             
1 44231U 19027A   26189.52803887 -.00000233  00000+0  00000+0 0  9997
2 44231   1.7088  74.5140 0009890 284.3806 262.1753  1.00274380 26298
